NORAD_CAT_ID,OBJECT_NAME,OBJECT_TYPE,EPOCH,MEAN_MOTION,ECCENTRICITY,INCLINATION,RA_OF_ASC_NODE,ARG_OF_PERICENTER,MEAN_ANOMALY,BSTAR,MEAN_MOTION_DOT,MEAN_MOTION_DDOT,TLE_LINE0,TLE_LINE1,TLE_LINE2,SEMIMAJOR_AXIS,PERIOD,APOGEE,PERIGEE,DECAYED
53926.0,STARLINK-5014,PAYLOAD,2023-05-30 18:57:22,15.08837025,0.0001034,53.2152,180.4782,78.8775,281.2333,1.57e-05,-3.8e-07,0.0,0 STARLINK-5014,1 53926U 22119AS  23150.78984513 -.00000038  00000-0  15700-4 0  9995,2 53926  53.2152 180.4782 0001034  78.8775 281.2333 15.08837025 38849,6917.889,95.438,540.47,539.039,0.0
53926.0,STARLINK-5014,PAYLOAD,2023-05-31 10:51:13,15.08840303,0.0001034,53.2149,177.5041,73.8176,286.2929,6.0544e-05,6.76e-06,0.0,0 STARLINK-5014,1 53926U 22119AS  23151.45224273  .00000676  00000-0  60544-4 0  9993,2 53926  53.2149 177.5041 0001034  73.8176 286.2929 15.08840303 38513,6917.879,95.438,540.46,539.029,0.0
53926.0,STARLINK-5014,PAYLOAD,2023-06-01 01:09:42,15.08833926,0.0001029,53.2146,174.8273,70.8594,289.2509,5.5915e-05,6.02e-06,0.0,0 STARLINK-5014,1 53926U 22119AS  23152.04840796  .00000602  00000-0  55915-4 0  9998,2 53926  53.2146 174.8273 0001029  70.8594 289.2509 15.08833926 38602,6917.899,95.438,540.476,539.052,0.0
53926.0,STARLINK-5014,PAYLOAD,2023-06-01 09:06:38,15.08836684,0.000105,53.2147,173.3402,70.9312,289.1794,5.6915e-05,6.18e-06,0.0,0 STARLINK-5014,1 53926U 22119AS  23152.37960728  .00000618  00000-0  56915-4 0  9990,2 53926  53.2147 173.3402 0001050  70.9312 289.1794 15.08836684 39086,6917.891,95.438,540.482,539.029,0.0
53926.0,STARLINK-5014,PAYLOAD,2023-06-02 01:00:29,15.08842343,0.0001038,53.2146,170.367,73.9374,286.1733,5.4525e-05,5.8e-06,0.0,0 STARLINK-5014,1 53926U 22119AS  23153.04200397  .00000580  00000-0  54525-4 0  9997,2 53926  53.2146 170.3670 0001038  73.9374 286.1733 15.08842343 38758,6917.873,95.437,540.456,539.02,0.0
53926.0,STARLINK-5014,PAYLOAD,2023-06-02 07:22:01,15.08843673,0.0001046,53.2145,169.1773,75.2258,284.885,5.9425e-05,6.58e-06,0.0,0 STARLINK-5014,1 53926U 22119AS  23153.30696247  .00000658  00000-0  59425-4 0  9999,2 53926  53.2145 169.1773 0001046  75.2258 284.8850 15.08843673 39227,6917.869,95.437,540.458,539.011,0.0
53926.0,STARLINK-5014,PAYLOAD,2023-06-02 18:29:43,15.08841959,0.0001052,53.2147,167.0959,74.0552,286.0556,5.6088e-05,6.05e-06,0.0,0 STARLINK-5014,1 53926U 22119AS  23153.77064326  .00000605  00000-0  56088-4 0  9991,2 53926  53.2147 167.0959 0001052  74.0552 286.0556 15.08841959 39292,6917.874,95.437,540.467,539.012,0.0
53926.0,STARLINK-5014,PAYLOAD,2023-06-03 07:12:48,15.08838649,0.0001054,53.2148,164.7169,76.0567,284.0542,4.8702e-05,4.87e-06,0.0,0 STARLINK-5014,1 53926U 22119AS  23154.30056594  .00000487  00000-0  48702-4 0  9991,2 53926  53.2148 164.7169 0001054  76.0567 284.0542 15.08838649 38946,6917.885,95.438,540.479,539.02,0.0
53926.0,STARLINK-5014,PAYLOAD,2023-06-04 07:03:35,15.08840392,0.0001086,53.215,160.2564,78.8215,281.2899,1.0091e-05,-1.27e-06,0.0,0 STARLINK-5014,1 53926U 22119AS  23155.29416553 -.00000127  00000-0  10091-4 0  9997,2 53926  53.2150 160.2564 0001086  78.8215 281.2899 15.08840392 39521,6917.879,95.438,540.495,538.993,0.0
53926.0,STARLINK-5014,PAYLOAD,2023-06-05 03:43:36,15.08837052,0.0001093,53.2153,156.3906,77.7191,282.3923,2.9233e-05,1.77e-06,0.0,0 STARLINK-5014,1 53926U 22119AS  23156.15528714  .00000177  00000-0  29233-4 0  9998,2 53926  53.2153 156.3906 0001093  77.7191 282.3923 15.08837052 39225,6917.889,95.438,540.511,538.998,0.0
53926.0,STARLINK-5014,PAYLOAD,2023-06-05 10:05:09,15.0883828,0.0001111,53.2154,155.2018,75.9929,284.1187,3.4224e-05,2.57e-06,0.0,0 STARLINK-5014,1 53926U 22119AS  23156.42024658  .00000257  00000-0  34224-4 0  9991,2 53926  53.2154 155.2018 0001111  75.9929 284.1187 15.08838280 39695,6917.886,95.438,540.519,538.982,0.0
53926.0,STARLINK-5014,PAYLOAD,2023-06-06 08:20:33,15.08837419,0.0001137,53.2153,151.0387,75.9511,284.1607,3.6746e-05,2.97e-06,0.0,0 STARLINK-5014,1 53926U 22119AS  23157.34760903  .00000297  00000-0  36746-4 0  9998,2 53926  53.2153 151.0387 0001137  75.9511 284.1607 15.08837419 39401,6917.888,95.438,540.54,538.967,0.0
53926.0,STARLINK-5014,PAYLOAD,2023-06-07 08:11:20,15.08836455,0.0001121,53.2153,146.5782,76.1404,283.9713,2.2541e-05,7.1e-07,0.0,0 STARLINK-5014,1 53926U 22119AS  23158.34121294  .00000071  00000-0  22541-4 0  9991,2 53926  53.2153 146.5782 0001121  76.1404 283.9713 15.08836455 39983,6917.891,95.438,540.532,538.981,0.0
53926.0,STARLINK-5014,PAYLOAD,2023-06-07 16:08:16,15.08837592,0.0001123,53.2152,145.0913,76.7753,283.3364,3.5972e-05,2.85e-06,0.0,0 STARLINK-5014,1 53926U 22119AS  23158.67241246  .00000285  00000-0  35972-4 0  9996,2 53926  53.2152 145.0913 0001123  76.7753 283.3364 15.08837592 39605,6917.888,95.438,540.53,538.976,0.0
53926.0,STARLINK-5014,PAYLOAD,2023-06-07 22:29:48,15.08837563,0.0001099,53.2152,143.9015,78.1449,281.9667,5.7795e-05,6.32e-06,0.0,0 STARLINK-5014,1 53926U 22119AS  23158.93737221  .00000632  00000-0  57795-4 0  9991,2 53926  53.2152 143.9015 0001099  78.1449 281.9667 15.08837563 40076,6917.888,95.438,540.513,538.993,0.0
53926.0,STARLINK-5014,PAYLOAD,2023-06-08 06:26:44,15.0884123,0.0001117,53.2154,142.4148,78.27,281.8417,7.1533e-05,8.51e-06,0.0,0 STARLINK-5014,1 53926U 22119AS  23159.26856985  .00000851  00000-0  71533-4 0  9996,2 53926  53.2154 142.4148 0001117  78.2700 281.8417 15.08841230 40125,6917.877,95.437,540.514,538.969,0.0
53926.0,STARLINK-5014,PAYLOAD,2023-06-08 22:20:35,15.0883899,0.0001129,53.2159,139.4415,83.0532,277.0589,6.9928e-05,8.25e-06,0.0,0 STARLINK-5014,1 53926U 22119AS  23159.93097153  .00000825  00000-0  69928-4 0  9990,2 53926  53.2159 139.4415 0001129  83.0532 277.0589 15.08838990 39790,6917.883,95.438,540.53,538.967,0.0
53926.0,STARLINK-5014,PAYLOAD,2023-06-09 04:42:08,15.08839817,0.0001133,53.2159,138.2521,82.9161,277.196,7.1661e-05,8.53e-06,0.0,0 STARLINK-5014,1 53926U 22119AS  23160.19593113  .00000853  00000-0  71661-4 0  9995,2 53926  53.2159 138.2521 0001133  82.9161 277.1960 15.08839817 40263,6917.881,95.438,540.53,538.962,0.0
53926.0,STARLINK-5014,PAYLOAD,2023-06-10 04:32:55,15.08837082,0.0001224,53.2156,133.7912,83.1006,277.0125,-9.009e-06,-4.31e-06,0.0,0 STARLINK-5014,1 53926U 22119AS  23161.18953567 -.00000431  00000-0 -90090-5 0  9990,2 53926  53.2156 133.7912 0001224  83.1006 277.0125 15.08837082 39987,6917.889,95.438,540.601,538.908,0.0
53926.0,STARLINK-5014,PAYLOAD,2023-06-10 07:43:42,15.08838274,0.00012,53.2153,133.196,85.7495,274.3634,1.4356e-06,-2.65e-06,0.0,0 STARLINK-5014,1 53926U 22119AS  23161.32201462 -.00000265  00000-0  14356-5 0  9991,2 53926  53.2153 133.1960 0001200  85.7495 274.3634 15.08838274 40436,6917.886,95.438,540.581,538.921,0.0
53926.0,STARLINK-5014,PAYLOAD,2023-06-11 07:34:29,15.08838159,0.0001266,53.2157,128.7346,92.566,267.5477,3.2194e-06,-2.37e-06,0.0,0 STARLINK-5014,1 53926U 22119AS  23162.31561635 -.00000237  00000-0  32194-5 0  9991,2 53926  53.2157 128.7346 0001266  92.5660 267.5477 15.08838159 40150,6917.886,95.438,540.627,538.875,0.0
53926.0,STARLINK-5014,PAYLOAD,2023-06-12 07:25:15,15.08843366,0.0001194,53.2152,124.2749,87.9899,272.1229,0.00010518,1.387e-05,0.0,0 STARLINK-5014,1 53926U 22119AS  23163.30920984  .00001387  00000-0  10518-3 0  9997,2 53926  53.2152 124.2749 0001194  87.9899 272.1229 15.08843366 40305,6917.87,95.437,540.561,538.909,0.0
53926.0,STARLINK-5014,PAYLOAD,2023-06-12 21:43:45,15.0883158,0.0001001,53.2163,121.5983,90.3726,269.738,-1.1752e-05,-4.75e-06,0.0,0 STARLINK-5014,1 53926U 22119AS  23163.90538280 -.00000475  00000-0 -11752-4 0  9998,2 53926  53.2163 121.5983 0001001  90.3726 269.7380 15.08831580 40823,6917.906,95.438,540.464,539.079,0.0
53926.0,STARLINK-5014,PAYLOAD,2023-06-13 04:05:17,15.08836239,0.0001194,53.2158,120.4093,93.2792,266.8337,2.1861e-05,6e-07,0.0,0 STARLINK-5014,1 53926U 22119AS  23164.17033960  .00000060  00000-0  21861-4 0  9993,2 53926  53.2158 120.4093 0001194  93.2792 266.8337 15.08836239 40438,6917.892,95.438,540.583,538.931,0.0
53926.0,STARLINK-5014,PAYLOAD,2023-06-14 05:31:27,15.08840243,0.0001187,53.2163,115.6521,92.517,267.5958,-1.6318e-05,-5.48e-06,0.0,0 STARLINK-5014,1 53926U 22119AS  23165.23018079 -.00000548  00000-0 -16318-4 0  9999,2 53926  53.2163 115.6521 0001187  92.5170 267.5958 15.08840243 40594,6917.88,95.438,540.566,538.923,0.0
53926.0,STARLINK-5014,PAYLOAD,2023-06-14 21:25:19,15.08832962,0.0001183,53.2165,112.6792,98.0269,262.0857,4.3102e-05,3.98e-06,0.0,0 STARLINK-5014,1 53926U 22119AS  23165.89258563  .00000398  00000-0  43102-4 0  9997,2 53926  53.2165 112.6792 0001183  98.0269 262.0857 15.08832962 41126,6917.902,95.438,540.585,538.949,0.0
53926.0,STARLINK-5014,PAYLOAD,2023-06-15 05:22:15,15.08835468,0.0001145,53.2162,111.1915,93.2489,266.8634,5.7757e-05,6.31e-06,0.0,0 STARLINK-5014,1 53926U 22119AS  23166.22378487  .00000631  00000-0  57757-4 0  9994,2 53926  53.2162 111.1915 0001145  93.2489 266.8634 15.08835468 41177,6917.894,95.438,540.551,538.967,0.0
53926.0,STARLINK-5014,PAYLOAD,2023-06-16 00:26:52,15.08838867,0.0001166,53.2164,107.6231,89.2283,270.8842,5.0166e-05,5.11e-06,0.0,0 STARLINK-5014,1 53926U 22119AS  23167.01866515  .00000511  00000-0  50166-4 0  9990,2 53926  53.2164 107.6231 0001166  89.2283 270.8842 15.08838867 40867,6917.884,95.438,540.555,538.942,0.0
53926.0,STARLINK-5014,PAYLOAD,2023-06-16 05:13:01,15.08845979,0.0001209,53.2165,106.7312,88.3233,271.7898,0.00010954,1.456e-05,0.0,0 STARLINK-5014,1 53926U 22119AS  23167.21737915  .00001456  00000-0  10954-3 0  9992,2 53926  53.2165 106.7312 0001209  88.3233 271.7898 15.08845979 40897,6917.862,95.437,540.563,538.891,0.0
53926.0,STARLINK-5014,PAYLOAD,2023-06-16 13:09:57,15.08847996,0.0001349,53.2173,105.2432,80.9784,279.1361,3.4821e-05,2.66e-06,0.0,0 STARLINK-5014,1 53926U 22119AS  23167.54857969  .00000266  00000-0  34821-4 0  9998,2 53926  53.2173 105.2432 0001349  80.9784 279.1361 15.08847996 41379,6917.856,95.437,540.654,538.788,0.0
